NORAD_CAT_ID,OBJECT_NAME,OBJECT_TYPE,EPOCH,MEAN_MOTION,ECCENTRICITY,INCLINATION,RA_OF_ASC_NODE,ARG_OF_PERICENTER,MEAN_ANOMALY,BSTAR,MEAN_MOTION_DOT,MEAN_MOTION_DDOT,TLE_LINE0,TLE_LINE1,TLE_LINE2,SEMIMAJOR_AXIS,PERIOD,APOGEE,PERIGEE,DECAYED
54066.0,STARLINK-5151,PAYLOAD,2023-10-02 00:10:05,15.08834745,0.0001538,53.2193,17.9545,90.4371,269.6798,-6.6189e-05,-1.341e-05,0.0,0 STARLINK-5151,1 54066U 22136R   23275.00700760 -.00001341  00000-0 -66189-4 0  9999,2 54066  53.2193  17.9545 0001538  90.4371 269.6798 15.08834745 53019,6917.896,95.438,540.825,538.697,0.0
54066.0,STARLINK-5151,PAYLOAD,2023-10-02 19:14:43,15.08843636,0.0001629,53.2197,14.384,83.6398,276.478,5.1368e-05,5.3e-06,0.0,0 STARLINK-5151,1 54066U 22136R   23275.80188765  .00000530  00000-0  51368-4 0  9992,2 54066  53.2197  14.3840 0001629  83.6398 276.4780 15.08843636 52651,6917.869,95.437,540.861,538.607,0.0
54066.0,STARLINK-5151,PAYLOAD,2023-10-03 12:43:57,15.08848761,0.0001548,53.2195,11.1127,96.4898,263.6271,1.3038e-05,-8e-07,0.0,0 STARLINK-5151,1 54066U 22136R   23276.53052687 -.00000080  00000-0  13038-4 0  9999,2 54066  53.2195  11.1127 0001548  96.4898 263.6271 15.08848761 53242,6917.854,95.437,540.789,538.648,0.0
54066.0,STARLINK-5151,PAYLOAD,2023-10-04 10:59:21,15.08841456,0.0001526,53.2197,6.9509,95.2462,264.8704,0.00022495,3.294e-05,0.0,0 STARLINK-5151,1 54066U 22136R   23277.45788686  .00003294  00000-0  22495-3 0  9991,2 54066  53.2197   6.9509 0001526  95.2462 264.8704 15.08841456 53383,6917.876,95.437,540.797,538.685,0.0
54066.0,STARLINK-5151,PAYLOAD,2023-10-04 12:34:44,15.08851319,0.0001594,53.2197,6.6531,95.4339,264.6835,0.00014851,2.077e-05,0.0,0 STARLINK-5151,1 54066U 22136R   23277.52412378  .00002077  00000-0  14851-3 0  9996,2 54066  53.2197   6.6531 0001594  95.4339 264.6835 15.08851319 52915,6917.846,95.437,540.813,538.608,0.0
54066.0,STARLINK-5151,PAYLOAD,2023-10-04 17:20:52,15.08863268,0.000134,53.219,5.7595,103.9775,256.1366,0.0002502,3.699e-05,0.0,0 STARLINK-5151,1 54066U 22136R   23277.72283107  .00003699  00000-0  25020-3 0  9995,2 54066  53.2190   5.7595 0001340 103.9775 256.1366 15.08863268 53424,6917.809,95.436,540.601,538.747,0.0
54066.0,STARLINK-5151,PAYLOAD,2023-10-05 10:50:09,15.08836027,0.0001605,53.2197,2.4914,85.0932,275.0244,3.3659e-05,2.48e-06,0.0,0 STARLINK-5151,1 54066U 22136R   23278.45149671  .00000248  00000-0  33659-4 0  9998,2 54066  53.2197   2.4914 0001605  85.0932 275.0244 15.08836027 53539,6917.893,95.438,540.868,538.647,0.0
54066.0,STARLINK-5151,PAYLOAD,2023-10-05 12:25:31,15.08847361,0.0001548,53.2196,2.1933,89.6347,270.4822,9.2762e-05,1.189e-05,0.0,0 STARLINK-5151,1 54066U 22136R   23278.51772836  .00001189  00000-0  92762-4 0  9995,2 54066  53.2196   2.1933 0001548  89.6347 270.4822 15.08847361 53064,6917.858,95.437,540.794,538.652,0.0
54066.0,STARLINK-5151,PAYLOAD,2023-10-06 10:40:55,15.08843805,0.0001648,53.2189,358.0257,110.5837,249.5332,-3.0399e-05,-7.72e-06,0.0,0 STARLINK-5151,1 54066U 22136R   23279.44508838 -.00000772  00000-0 -30399-4 0  9994,2 54066  53.2189 358.0257 0001648 110.5837 249.5332 15.08843805 53687,6917.869,95.437,540.874,538.594,0.0
54066.0,STARLINK-5151,PAYLOAD,2023-10-06 12:16:18,15.08845868,0.0001519,53.2187,357.733,91.2502,268.8664,8.7171e-05,1.1e-05,0.0,0 STARLINK-5151,1 54066U 22136R   23279.51133098  .00001100  00000-0  87171-4 0  9998,2 54066  53.2187 357.7330 0001519  91.2502 268.8664 15.08845868 53216,6917.862,95.437,540.778,538.677,0.0
54066.0,STARLINK-5151,PAYLOAD,2023-10-06 17:02:27,15.08853667,0.0001508,53.2191,356.8386,93.7297,266.3868,0.00019089,2.752e-05,0.0,0 STARLINK-5151,1 54066U 22136R   23279.71004581  .00002752  00000-0  19089-3 0  9990,2 54066  53.2191 356.8386 0001508  93.7297 266.3868 15.08853667 53246,6917.839,95.437,540.747,538.66,0.0
54066.0,STARLINK-5151,PAYLOAD,2023-10-07 10:31:43,15.08843281,0.0001708,53.2193,353.5716,102.0297,258.0886,0.00016438,2.329e-05,0.0,0 STARLINK-5151,1 54066U 22136R   23280.43869371  .00002329  00000-0  16438-3 0  9992,2 54066  53.2193 353.5716 0001708 102.0297 258.0886 15.08843281 53839,6917.87,95.437,540.917,538.554,0.0
54066.0,STARLINK-5151,PAYLOAD,2023-10-07 12:07:06,15.08840082,0.00019,53.2189,353.2728,72.6193,287.5006,4.4858e-05,4.26e-06,0.0,0 STARLINK-5151,1 54066U 22136R   23280.50493578  .00000426  00000-0  44858-4 0  9996,2 54066  53.2189 353.2728 0001900  72.6193 287.5006 15.08840082 53360,6917.88,95.438,541.06,538.431,0.0
54066.0,STARLINK-5151,PAYLOAD,2023-10-07 21:39:25,15.08842704,0.0001598,53.2191,351.4908,93.0894,267.0281,6.6089e-05,7.64e-06,0.0,0 STARLINK-5151,1 54066U 22136R   23280.90237333  .00000764  00000-0  66089-4 0  9990,2 54066  53.2191 351.4908 0001598  93.0894 267.0281 15.08842704 53429,6917.872,95.437,540.843,538.632,0.0
54066.0,STARLINK-5151,PAYLOAD,2023-10-08 10:22:31,15.08832291,0.0001587,53.2203,349.112,97.5471,262.5701,2.7168e-05,1.44e-06,0.0,0 STARLINK-5151,1 54066U 22136R   23281.43230503  .00000144  00000-0  27168-4 0  9998,2 54066  53.2203 349.1120 0001587  97.5471 262.5701 15.08832291 53989,6917.904,95.438,540.867,538.671,0.0
54066.0,STARLINK-5151,PAYLOAD,2023-10-08 11:57:54,15.08834936,0.0001482,53.2198,348.8138,88.0164,272.0998,4.8176e-05,4.79e-06,0.0,0 STARLINK-5151,1 54066U 22136R   23281.49854306  .00000479  00000-0  48176-4 0  9990,2 54066  53.2198 348.8138 0001482  88.0164 272.0998 15.08834936 53516,6917.896,95.438,540.786,538.736,0.0
54066.0,STARLINK-5151,PAYLOAD,2023-10-08 15:08:39,15.08845228,0.0001569,53.2182,348.2176,83.9025,276.2146,0.00014348,1.997e-05,0.0,0 STARLINK-5151,1 54066U 22136R   23281.63101493  .00001997  00000-0  14348-3 0  9997,2 54066  53.2182 348.2176 0001569  83.9025 276.2146 15.08845228 54014,6917.864,95.437,540.815,538.644,0.0
54066.0,STARLINK-5151,PAYLOAD,2023-10-08 21:30:12,15.08839056,0.0001404,53.2193,347.0267,86.2187,273.8966,-3.7051e-05,-8.78e-06,0.0,0 STARLINK-5151,1 54066U 22136R   23281.89598139 -.00000878  00000-0 -37051-4 0  9998,2 54066  53.2193 347.0267 0001404  86.2187 273.8966 15.08839056 54056,6917.883,95.438,540.72,538.777,0.0
54066.0,STARLINK-5151,PAYLOAD,2023-10-09 11:48:40,15.08849332,0.0001492,53.2181,344.3514,91.3681,268.7482,0.0001159,1.558e-05,0.0,0 STARLINK-5151,1 54066U 22136R   23282.49213488  .00001558  00000-0  11590-3 0  9999,2 54066  53.2181 344.3514 0001492  91.3681 268.7482 15.08849332 53661,6917.852,95.437,540.749,538.685,0.0
54066.0,STARLINK-5151,PAYLOAD,2023-10-09 16:34:49,15.08848149,0.0001523,53.2181,343.4576,84.1333,275.9833,0.00015606,2.197e-05,0.0,0 STARLINK-5151,1 54066U 22136R   23282.69085434  .00002197  00000-0  15606-3 0  9991,2 54066  53.2181 343.4576 0001523  84.1333 275.9833 15.08848149 54170,6917.855,95.437,540.774,538.667,0.0
54066.0,STARLINK-5151,PAYLOAD,2023-10-10 11:39:27,15.08853205,0.0001552,53.2179,339.8902,89.8275,270.2895,0.00025599,3.79e-05,0.0,0 STARLINK-5151,1 54066U 22136R   23283.48573317  .00003790  00000-0  25599-3 0  9993,2 54066  53.2179 339.8902 0001552  89.8275 270.2895 15.08853205 53813,6917.84,95.437,540.779,538.631,0.0
54066.0,STARLINK-5151,PAYLOAD,2023-10-10 16:25:36,15.08860113,0.000144,53.2173,338.997,93.7281,266.3876,0.00028789,4.299e-05,0.0,0 STARLINK-5151,1 54066U 22136R   23283.68444739  .00004299  00000-0  28789-3 0  9999,2 54066  53.2173 338.9970 0001440  93.7281 266.3876 15.08860113 53843,6917.819,95.436,540.68,538.688,0.0
54066.0,STARLINK-5151,PAYLOAD,2023-10-11 03:33:19,15.08821502,0.0001523,53.2192,336.9143,90.6084,269.5083,-0.0002569,-4.372e-05,0.0,0 STARLINK-5151,1 54066U 22136R   23284.14814611 -.00004372  00000-0 -25690-3 0  9993,2 54066  53.2192 336.9143 0001523  90.6084 269.5083 15.08821502 54398,6917.937,95.439,540.856,538.748,0.0
54066.0,STARLINK-5151,PAYLOAD,2023-10-11 13:05:38,15.08836218,0.0001711,53.2169,335.1318,92.7045,267.4143,0.0001504,2.106e-05,0.0,0 STARLINK-5151,1 54066U 22136R   23284.54558318  .00002106  00000-0  15040-3 0  9995,2 54066  53.2169 335.1318 0001711  92.7045 267.4143 15.08836218 54457,6917.892,95.438,540.941,538.573,0.0
54066.0,STARLINK-5151,PAYLOAD,2023-10-12 09:45:39,15.08851618,0.0001804,53.218,331.2676,87.5373,272.5826,0.00082804,0.00012919,0.0,0 STARLINK-5151,1 54066U 22136R   23285.40670579  .00012919  00000-0  82804-3 0  9990,2 54066  53.2180 331.2676 0001804  87.5373 272.5826 15.08851618 54101,6917.845,95.437,540.958,538.462,0.0
54066.0,STARLINK-5151,PAYLOAD,2023-10-13 03:14:53,15.0884423,0.0002014,53.2185,327.9949,94.6638,265.4585,0.00017343,2.473e-05,0.0,0 STARLINK-5151,1 54066U 22136R   23286.13534557  .00002473  00000-0  17343-3 0  9996,2 54066  53.2185 327.9949 0002014  94.6638 265.4585 15.08844230 54697,6917.867,95.437,541.126,538.339,0.0
54066.0,STARLINK-5151,PAYLOAD,2023-10-13 09:36:26,15.08842278,0.0001799,53.2175,326.8063,90.3585,269.7613,0.00029616,4.429e-05,0.0,0 STARLINK-5151,1 54066U 22136R   23286.40030682  .00004429  00000-0  29616-3 0  9995,2 54066  53.2175 326.8063 0001799  90.3585 269.7613 15.08842278 54255,6917.873,95.437,540.983,538.494,0.0
54066.0,STARLINK-5151,PAYLOAD,2023-10-14 09:27:13,15.0884993,0.000177,53.218,322.3498,90.6566,269.4629,0.00018901,2.722e-05,0.0,0 STARLINK-5151,1 54066U 22136R   23287.39390054  .00002722  00000-0  18901-3 0  9995,2 54066  53.2180 322.3498 0001770  90.6566 269.4629 15.08849930 54880,6917.85,95.437,540.939,538.491,0.0
54066.0,STARLINK-5151,PAYLOAD,2023-10-14 12:37:58,15.08854956,0.0001827,53.2177,321.7524,91.168,268.9521,0.00020588,2.991e-05,0.0,0 STARLINK-5151,1 54066U 22136R   23287.52637716  .00002991  00000-0  20588-3 0  9991,2 54066  53.2177 321.7524 0001827  91.1680 268.9521 15.08854956 54424,6917.835,95.437,540.964,538.436,0.0
54066.0,STARLINK-5151,PAYLOAD,2023-10-15 02:56:28,15.08832336,0.0002375,53.2177,319.0749,90.8098,269.3166,-3.8387e-05,-8.99e-06,0.0,0 STARLINK-5151,1 54066U 22136R   23288.12255141 -.00000899  00000-0 -38387-4 0  9990,2 54066  53.2177 319.0749 0002375  90.8098 269.3166 15.08832336 54991,6917.904,95.438,541.412,538.126,0.0
